     2              NAVIGATION DATA                         RINEX VERSION / TYPE
CCRINEXN V1.6.0 UX  CDDIS               27-OCT-04 02:39     PGM / RUN BY / DATE 
IGS BROADCAST EPHEMERIS FILE                                COMMENT             
    0.2515D-07 -0.7451D-08 -0.1192D-06  0.1192D-06          ION ALPHA           
    0.1331D+06 -0.4915D+05 -0.1311D+06 -0.1311D+06          ION BETA            
    0.279396772385D-08 0.177635683940D-14   405504     1294 DELTA-UTC: A0,A1,T,W
    13                                                      LEAP SECONDS        
                                                            END OF HEADER       
 8 04 10 26  1 59 44.0-0.122897326946D-04-0.909494701773D-12 0.000000000000D+00
    0.146000000000D+03-0.956250000000D+01 0.479984278986D-08 0.235638345532D+01
   -0.368803739548D-06 0.935321068391D-02 0.353902578354D-05 0.515359382248D+04
    0.179984000000D+06 0.223517417908D-07 0.131885421073D+01 0.117346644402D-06
    0.965860845467D+00 0.313656250000D+03 0.245891510154D+01-0.827534470132D-08
   -0.121433629627D-09 0.100000000000D+01 0.129400000000D+04 0.000000000000D+00
    0.000000000000D+00 0.000000000000D+00-0.372529029846D-08 0.146000000000D+03
    0.177660000000D+06 0.000000000000D+00 0.000000000000D+00 0.000000000000D+00
17 04 10 26  1 59 44.0-0.160428229719D-03-0.454747350887D-12 0.000000000000D+00
    0.237000000000D+03-0.201562500000D+02 0.480484299814D-08 0.287576151282D+01
   -0.124797224999D-05 0.173941310495D-01 0.225193798542D-05 0.515367746353D+04
    0.179984000000D+06-0.197440385819D-06-0.174060833034D+01-0.132247805595D-06
    0.966191685853D+00 0.341312500000D+03-0.271673321679D+01-0.822891419588D-08
   -0.178578867098D-09 0.100000000000D+01 0.129400000000D+04 0.000000000000D+00
    0.200000000000D+01 0.000000000000D+00-0.139698386192D-08 0.237000000000D+03
    0.178518000000D+06 0.400000000000D+01 0.000000000000D+00 0.000000000000D+00
26 04 10 26  1 59 44.0 0.261550303549D-03 0.932232069317D-11 0.000000000000D+00
    0.192000000000D+03 0.496562500000D+02 0.376194231322D-08-0.256159127089D+01
    0.253692269325D-05 0.156327914447D-01 0.108908861876D-04 0.515372190666D+04
    0.179984000000D+06 0.856816768646D-07 0.249799884665D+00-0.230967998505D-06
    0.984052644325D+00 0.179875000000D+03 0.638430093793D+00-0.750817008566D-08
    0.557523249789D-09 0.100000000000D+01 0.129400000000D+04 0.000000000000D+00
    0.200000000000D+01 0.000000000000D+00-0.651925802231D-08 0.192000000000D+03
    0.174048000000D+06 0.400000000000D+01 0.000000000000D+00 0.000000000000D+00
28 04 10 26  1 59 44.0 0.440198928118D-04 0.568434188608D-12 0.000000000000D+00
    0.183000000000D+03-0.526562500000D+02 0.447054335893D-08-0.268924042177D+00
   -0.264681875706D-05 0.925242446829D-02 0.113230198622D-04 0.515364451218D+04
    0.179984000000D+06 0.521540641785D-07 0.234217373410D+01 0.122934579849D-06
    0.959307282610D+00 0.162218750000D+03-0.237661333021D+01-0.814891086342D-08
   -0.378944355982D-09 0.100000000000D+01 0.129400000000D+04 0.000000000000D+00
    0.200000000000D+01 0.000000000000D+00-0.102445483208D-07 0.183000000000D+03
    0.175548000000D+06 0.400000000000D+01 0.000000000000D+00 0.000000000000D+00
 1 04 10 26  2  0  0.0 0.370032619685D-03 0.204636307899D-11 0.000000000000D+00
    0.231000000000D+03 0.544062500000D+02 0.383694553847D-08-0.295450091917D+01
    0.286661088467D-05 0.542453490198D-02 0.101551413536D-04 0.515263925362D+04
    0.180000000000D+06-0.428408384323D-07 0.264084382940D+00 0.186264514923D-08
    0.981544822379D+00 0.195906250000D+03-0.169671113563D+01-0.757781564644D-08
    0.416445918073D-09 0.000000000000D+00 0.129400000000D+04 0.000000000000D+00
    0.400000000000D+01 0.000000000000D+00-0.372529029846D-08 0.487000000000D+03
    0.172800000000D+06 0.400000000000D+01 0.000000000000D+00 0.000000000000D+00
 3 04 10 26  2  0  0.0 0.552707351744D-04 0.318323145621D-11 0.000000000000D+00
    0.130000000000D+03 0.896250000000D+02 0.519878797896D-08-0.205415170456D+01
    0.436417758465D-05 0.621540006250D-02 0.997073948383D-05 0.515370512581D+04
    0.180000000000D+06 0.186264514923D-07-0.298422656604D+01-0.633299350739D-07
    0.928166442429D+00 0.169875000000D+03 0.560165961732D+00-0.829963142725D-08
    0.447161483213D-09 0.100000000000D+01 0.129400000000D+04 0.000000000000D+00
    0.340000000000D+01 0.000000000000D+00-0.419095158577D-08 0.386000000000D+03
    0.172806000000D+06 0.400000000000D+01 0.000000000000D+00 0.000000000000D+00
 4 04 10 26  2  0  0.0 0.584173947573D-03-0.177351466846D-10 0.000000000000D+00
    0.760000000000D+02 0.000000000000D+00 0.523771817199D-08 0.128487140641D+01
    0.197440385819D-06 0.682340527419D-02 0.194087624550D-05 0.515374434853D+04
    0.180000000000D+06 0.521540641785D-07-0.183607603230D+01 0.596046447754D-07
    0.957237617795D+00 0.337031250000D+03-0.447266107457D-01-0.870571977103D-08
   -0.180721813503D-09 0.100000000000D+01 0.129400000000D+04 0.000000000000D+00
    0.280000000000D+01 0.000000000000D+00-0.605359673500D-08 0.332000000000D+03
    0.172818000000D+06 0.400000000000D+01 0.000000000000D+00 0.000000000000D+00
 5 04 10 26  2  0  0.0 0.561638735235D-04 0.216004991671D-11 0.000000000000D+00
    0.560000000000D+02-0.648125000000D+02 0.500949437983D-08 0.915236079645D+00
   -0.353157520294D-05 0.580036535393D-02 0.984221696854D-05 0.515367572594D+04
    0.180000000000D+06-0.108033418655D-06 0.225579361781D+01-0.223517417908D-07
    0.936227442888D+00 0.176843750000D+03 0.910827969538D+00-0.835499087605D-08
   -0.470733893670D-09 0.100000000000D+01 0.129400000000D+04 0.000000000000D+00
    0.280000000000D+01 0.000000000000D+00-0.419095158577D-08 0.312000000000D+03
    0.172818000000D+06 0.400000000000D+01 0.000000000000D+00 0.000000000000D+00
 6 04 10 26  2  0  0.0 0.476826913655D-03 0.295585778076D-11 0.000000000000D+00
    0.224000000000D+03 0.853437500000D+02 0.507592590182D-08 0.213524831519D+01
    0.444054603577D-05 0.644447107334D-02 0.101514160633D-04 0.515369634628D+04
    0.180000000000D+06 0.000000000000D+00-0.293006062561D+01-0.186264514923D-06
    0.935645991468D+00 0.172406250000D+03-0.195862918998D+01-0.822141377199D-08
    0.435018132627D-09 0.100000000000D+01 0.129400000000D+04 0.000000000000D+00
    0.200000000000D+01 0.000000000000D+00-0.465661287308D-08 0.224000000000D+03
    0.172818000000D+06 0.400000000000D+01 0.000000000000D+00 0.000000000000D+00
 7 04 10 26  2  0  0.0 0.267840456218D-03-0.248974174610D-10 0.000000000000D+00
    0.530000000000D+02 0.104781250000D+03 0.497234997548D-08-0.195705395344D+01
    0.550225377083D-05 0.130204403540D-01 0.103581696749D-04 0.515361640739D+04
    0.180000000000D+06 0.264495611191D-06-0.295762790217D+01 0.949949026108D-07
    0.937286014799D+00 0.162937500000D+03-0.181908961211D+01-0.810855203945D-08
    0.510378402166D-09 0.100000000000D+01 0.129400000000D+04 0.000000000000D+00
    0.200000000000D+01 0.000000000000D+00-0.186264514923D-08 0.309000000000D+03
    0.172818000000D+06 0.400000000000D+01 0.000000000000D+00 0.000000000000D+00
 8 04 10 26  2  0  0.0-0.122906640172D-04-0.909494701773D-12 0.000000000000D+00
    0.118000000000D+03-0.956250000000D+01 0.479984278986D-08 0.235871577098D+01
   -0.368803739548D-06 0.935321510769D-02 0.353902578354D-05 0.515359381676D+04
    0.180000000000D+06 0.223517417908D-07 0.131885406297D+01 0.117346644402D-06
    0.965860880577D+00 0.313656250000D+03 0.245891670489D+01-0.827534470132D-08
   -0.121433629627D-09 0.100000000000D+01 0.129400000000D+04 0.000000000000D+00
    0.200000000000D+01 0.000000000000D+00-0.372529029846D-08 0.630000000000D+03
    0.173010000000D+06 0.000000000000D+00 0.000000000000D+00 0.000000000000D+00
 9 04 10 26  2  0  0.0-0.115945003927D-04-0.193267624127D-11 0.000000000000D+00
    0.200000000000D+02 0.334375000000D+01 0.507806866480D-08 0.186540241811D+01
   -0.149011611939D-06 0.162313490873D-01 0.343658030033D-05 0.515368436623D+04
    0.180000000000D+06-0.156462192535D-06 0.124780296407D+01-0.320374965668D-06
    0.952931388229D+00 0.310312500000D+03 0.110489206808D+01-0.852321216886D-08
    0.846463830045D-10 0.100000000000D+01 0.129400000000D+04 0.000000000000D+00
    0.400000000000D+01 0.000000000000D+00-0.558793544769D-08 0.276000000000D+03
    0.172818000000D+06 0.400000000000D+01 0.000000000000D+00 0.000000000000D+00
10 04 10 26  2  0  0.0 0.527785159648D-04 0.682121026330D-12 0.000000000000D+00
    0.500000000000D+01-0.933125000000D+02 0.396230790317D-08-0.883233969852D+00
   -0.486522912979D-05 0.607137382031D-02 0.105705112219D-04 0.515354135895D+04
    0.180000000000D+06 0.147148966789D-06-0.795496281670D+00-0.633299350739D-07
    0.979368787327D+00 0.186843750000D+03 0.286556103709D+00-0.783354058412D-08
   -0.501806616546D-09 0.100000000000D+01 0.129400000000D+04 0.000000000000D+00
    0.100000000000D+01 0.000000000000D+00-0.232830643654D-08 0.500000000000D+01
    0.178620000000D+06 0.000000000000D+00 0.000000000000D+00 0.000000000000D+00
11 04 10 26  2  0  0.0 0.160612631589D-03 0.329691829393D-11 0.000000000000D+00
    0.200000000000D+01 0.234687500000D+02 0.640026659679D-08 0.287985568948D+01
    0.130757689476D-05 0.345347833354D-02 0.157207250595D-05 0.515367606735D+04
    0.180000000000D+06-0.109896063805D-06-0.197110393717D+01-0.502914190292D-07
    0.904503966324D+00 0.318593750000D+03 0.817893008870D-01-0.917288208736D-08
    0.110004582132D-09 0.100000000000D+01 0.129400000000D+04 0.000000000000D+00
    0.200000000000D+01 0.000000000000D+00-0.121071934700D-07 0.258000000000D+03
    0.172818000000D+06 0.400000000000D+01 0.000000000000D+00 0.000000000000D+00
